[{"OBJECT_NAME":"OBJECT B","OBJECT_ID":"2024-153B","EPOCH":"2026-03-09T23:15:18.632160","MEAN_MOTION":15.30512917,"ECCENTRICITY":0.00113423,"INCLINATION":97.6622,"RA_OF_ASC_NODE":204.9195,"ARG_OF_PERICENTER":149.8438,"MEAN_ANOMALY":210.3457,"EPHEMERIS_TYPE":0,"CLASSIFICATION_TYPE":"U","NORAD_CAT_ID":60746,"ELEMENT_SET_NO":999,"REV_AT_EPOCH":8476,"BSTAR":0.00066193599,"MEAN_MOTION_DOT":0.00019515,"MEAN_MOTION_DDOT":0},{"OBJECT_NAME":"STARLINK-32784","OBJECT_ID":"2025-008W","EPOCH":"2026-03-09T22:06:29.211552","MEAN_MOTION":15.31114656,"ECCENTRICITY":0.00057395,"INCLINATION":42.9937,"RA_OF_ASC_NODE":275.4081,"ARG_OF_PERICENTER":294.7007,"MEAN_ANOMALY":65.3248,"EPHEMERIS_TYPE":0,"CLASSIFICATION_TYPE":"U","NORAD_CAT_ID":62607,"ELEMENT_SET_NO":999,"REV_AT_EPOCH":6567,"BSTAR":0.0029487401,"MEAN_MOTION_DOT":0.00091369,"MEAN_MOTION_DDOT":0}]
